{
  "type": "FeatureCollection",
  "features": [
    {
      "type": "Feature",
      "properties": {
        "norad_id": 29887,
        "name": "FENGYUN 1C DEB",
        "group": "fengyun-1c-debris",
        "lat": -15.482510702273215,
        "lon": -115.6300366792132,
        "alt_km": 985.0124363729919,
        "timestamp": "2025-12-11T05:00:26.580738+00:00",
        "meta_object_name": "FENGYUN 1C DEB",
        "meta_object_id": "1999-025GH",
        "meta_epoch": "2025-12-10T17:04:13.457568",
        "meta_mean_motion": 14.33693981,
        "meta_eccentricity": 0.02871492,
        "meta_inclination": 98.7179,
        "meta_ra_of_asc_node": 66.3041,
        "meta_arg_of_pericenter": 5.1335,
        "meta_mean_anomaly": 145.4797,
        "meta_ephemeris_type": 0,
        "meta_classification_type": "U",
        "meta_norad_cat_id": 29887,
        "meta_element_set_no": 999,
        "meta_rev_at_epoch": 97945,
        "meta_bstar": 0.0007688038,
        "meta_mean_motion_dot": 3.334e-05,
        "meta_mean_motion_ddot": 0,
        "tle_line1": "1 29887U 99025GH  25344.71126687  .00003334  00000+0  76880-3 0  9999",
        "tle_line2": "2 29887  98.7179  66.3041 0287149   5.1335 145.4797 14.33693981979453"
      },
      "geometry": {
        "type": "Point",
        "coordinates": [
          -115.6300366792132,
          -15.482510702273215
        ]
      }
    },
    {
      "type": "Feature",
      "properties": {
        "norad_id": 29888,
        "name": "FENGYUN 1C DEB",
        "group": "fengyun-1c-debris",
        "lat": -10.671721888472629,
        "lon": 179.60492673156295,
        "alt_km": 676.8324828711247,
        "timestamp": "2025-12-11T05:00:26.580748+00:00",
        "meta_object_name": "FENGYUN 1C DEB",
        "meta_object_id": "1999-025GJ",
        "meta_epoch": "2025-12-10T12:08:37.508352",
        "meta_mean_motion": 14.19848752,
        "meta_eccentricity": 0.02751043,
        "meta_inclination": 99.1918,
        "meta_ra_of_asc_node": 177.1261,
        "meta_arg_of_pericenter": 31.6984,
        "meta_mean_anomaly": 330.0431,
        "meta_ephemeris_type": 0,
        "meta_classification_type": "U",
        "meta_norad_cat_id": 29888,
        "meta_element_set_no": 999,
        "meta_rev_at_epoch": 97472,
        "meta_bstar": 0.00048113931,
        "meta_mean_motion_dot": 1.438e-05,
        "meta_mean_motion_ddot": 0,
        "tle_line1": "1 29888U 99025GJ  25344.50598968  .00001438  00000+0  48114-3 0  9994",
        "tle_line2": "2 29888  99.1918 177.1261 0275104  31.6984 330.0431 14.19848752974721"
      },
      "geometry": {
        "type": "Point",
        "coordinates": [
          179.60492673156295,
          -10.671721888472629
        ]
      }
    },
    {
      "type": "Feature",
      "properties": {
        "norad_id": 29889,
        "name": "FENGYUN 1C DEB",
        "group": "fengyun-1c-debris",
        "lat": 67.51709126192574,
        "lon": -53.68619524249469,
        "alt_km": 795.8778811187858,
        "timestamp": "2025-12-11T05:00:26.580758+00:00",
        "meta_object_name": "FENGYUN 1C DEB",
        "meta_object_id": "1999-025GK",
        "meta_epoch": "2025-12-10T19:01:31.230912",
        "meta_mean_motion": 14.13508095,
        "meta_eccentricity": 0.01545357,
        "meta_inclination": 99.4768,
        "meta_ra_of_asc_node": 102.0704,
        "meta_arg_of_pericenter": 44.4818,
        "meta_mean_anomaly": 109.0399,
        "meta_ephemeris_type": 0,
        "meta_classification_type": "U",
        "meta_norad_cat_id": 29889,
        "meta_element_set_no": 999,
        "meta_rev_at_epoch": 97291,
        "meta_bstar": 0.0004100414,
        "meta_mean_motion_dot": 8.16e-06,
        "meta_mean_motion_ddot": 0,
        "tle_line1": "1 29889U 99025GK  25344.79272258  .00000816  00000+0  41004-3 0  9997",
        "tle_line2": "2 29889  99.4768 102.0704 0154535  44.4818 109.0399 14.13508095972912"
      },
      "geometry": {
        "type": "Point",
        "coordinates": [
          -53.68619524249469,
          67.51709126192574
        ]
      }
    },
    {
      "type": "Feature",
      "properties": {
        "norad_id": 29890,
        "name": "FENGYUN 1C DEB",
        "group": "fengyun-1c-debris",
        "lat": -76.44887987460379,
        "lon": 150.43190798937084,
        "alt_km": 832.3154341661502,
        "timestamp": "2025-12-11T05:00:26.580767+00:00",
        "meta_object_name": "FENGYUN 1C DEB",
        "meta_object_id": "1999-025GL",
        "meta_epoch": "2025-12-10T07:26:50.420256",
        "meta_mean_motion": 14.23022952,
        "meta_eccentricity": 0.0014847,
        "meta_inclination": 99.4677,
        "meta_ra_of_asc_node": 105.6512,
        "meta_arg_of_pericenter": 80.3415,
        "meta_mean_anomaly": 279.9437,
        "meta_ephemeris_type": 0,
        "meta_classification_type": "U",
        "meta_norad_cat_id": 29890,
        "meta_element_set_no": 999,
        "meta_rev_at_epoch": 97416,
        "meta_bstar": 0.001313,
        "meta_mean_motion_dot": 2.912e-05,
        "meta_mean_motion_ddot": 0,
        "tle_line1": "1 29890U 99025GL  25344.31030579  .00002912  00000+0  13130-2 0  9992",
        "tle_line2": "2 29890  99.4677 105.6512 0014847  80.3415 279.9437 14.23022952974165"
      },
      "geometry": {
        "type": "Point",
        "coordinates": [
          150.43190798937084,
          -76.44887987460379
        ]
      }
    },
    {
      "type": "Feature",
      "properties": {
        "norad_id": 29891,
        "name": "FENGYUN 1C DEB",
        "group": "fengyun-1c-debris",
        "lat": -27.333651201423372,
        "lon": -8.041463884731959,
        "alt_km": 882.4168680215644,
        "timestamp": "2025-12-11T05:00:26.580778+00:00",
        "meta_object_name": "FENGYUN 1C DEB",
        "meta_object_id": "1999-025GM",
        "meta_epoch": "2025-12-10T12:34:49.806912",
        "meta_mean_motion": 13.9999327,
        "meta_eccentricity": 0.00613503,
        "meta_inclination": 98.7262,
        "meta_ra_of_asc_node": 346.7524,
        "meta_arg_of_pericenter": 266.5163,
        "meta_mean_anomaly": 217.5371,
        "meta_ephemeris_type": 0,
        "meta_classification_type": "U",
        "meta_norad_cat_id": 29891,
        "meta_element_set_no": 999,
        "meta_rev_at_epoch": 96457,
        "meta_bstar": 0.00057546897,
        "meta_mean_motion_dot": 8.18e-06,
        "meta_mean_motion_ddot": 0,
        "tle_line1": "1 29891U 99025GM  25344.52418758  .00000818  00000+0  57547-3 0  9999",
        "tle_line2": "2 29891  98.7262 346.7524 0061350 266.5163 217.5371 13.99993270964579"
      },
      "geometry": {
        "type": "Point",
        "coordinates": [
          -8.041463884731959,
          -27.333651201423372
        ]
      }
    },
    {
      "type": "Feature",
      "properties": {
        "norad_id": 29892,
        "name": "FENGYUN 1C DEB",
        "group": "fengyun-1c-debris",
        "lat": -22.436765044547553,
        "lon": -51.166691124458175,
        "alt_km": 809.1095937205555,
        "timestamp": "2025-12-11T05:00:26.580788+00:00",
        "meta_object_name": "FENGYUN 1C DEB",
        "meta_object_id": "1999-025GN",
        "meta_epoch": "2025-12-10T16:22:18.223104",
        "meta_mean_motion": 14.32113177,
        "meta_eccentricity": 0.01912108,
        "meta_inclination": 99.1815,
        "meta_ra_of_asc_node": 132.1054,
        "meta_arg_of_pericenter": 303.283,
        "meta_mean_anomaly": 68.6734,
        "meta_ephemeris_type": 0,
        "meta_classification_type": "U",
        "meta_norad_cat_id": 29892,
        "meta_element_set_no": 999,
        "meta_rev_at_epoch": 96620,
        "meta_bstar": 0.0047895649,
        "meta_mean_motion_dot": 0.00015743,
        "meta_mean_motion_ddot": 0,
        "tle_line1": "1 29892U 99025GN  25344.68215536  .00015743  00000+0  47896-2 0  9994",
        "tle_line2": "2 29892  99.1815 132.1054 0191210 303.2830  68.6734 14.32113177966201"
      },
      "geometry": {
        "type": "Point",
        "coordinates": [
          -51.166691124458175,
          -22.436765044547553
        ]
      }
    },
    {
      "type": "Feature",
      "properties": {
        "norad_id": 29893,
        "name": "FENGYUN 1C DEB",
        "group": "fengyun-1c-debris",
        "lat": -77.12795603289378,
        "lon": -139.7729883844379,
        "alt_km": 999.2258461306819,
        "timestamp": "2025-12-11T05:00:26.580798+00:00",
        "meta_object_name": "FENGYUN 1C DEB",
        "meta_object_id": "1999-025GP",
        "meta_epoch": "2025-12-10T12:25:21.082368",
        "meta_mean_motion": 13.79459683,
        "meta_eccentricity": 0.01735954,
        "meta_inclination": 98.5536,
        "meta_ra_of_asc_node": 80.795,
        "meta_arg_of_pericenter": 159.4101,
        "meta_mean_anomaly": 269.1199,
        "meta_ephemeris_type": 0,
        "meta_classification_type": "U",
        "meta_norad_cat_id": 29893,
        "meta_element_set_no": 999,
        "meta_rev_at_epoch": 95109,
        "meta_bstar": 0.00035292679,
        "meta_mean_motion_dot": 3.69e-06,
        "meta_mean_motion_ddot": 0,
        "tle_line1": "1 29893U 99025GP  25344.51760512  .00000369  00000+0  35293-3 0  9993",
        "tle_line2": "2 29893  98.5536  80.7950 0173595 159.4101 269.1199 13.79459683951095"
      },
      "geometry": {
        "type": "Point",
        "coordinates": [
          -139.7729883844379,
          -77.12795603289378
        ]
      }
    }
  ]
}